[{"OBJECT_NAME":"STARLINK-32465","OBJECT_ID":"2024-196K","EPOCH":"2026-02-16T19:05:21.005664","MEAN_MOTION":15.3018279,"ECCENTRICITY":0.0001146,"INCLINATION":53.1598,"RA_OF_ASC_NODE":198.6693,"ARG_OF_PERICENTER":100.9038,"MEAN_ANOMALY":259.2092,"EPHEMERIS_TYPE":0,"CLASSIFICATION_TYPE":"U","NORAD_CAT_ID":61716,"ELEMENT_SET_NO":999,"REV_AT_EPOCH":7395,"BSTAR":1.9043e-5,"MEAN_MOTION_DOT":2.05e-6,"MEAN_MOTION_DDOT":0},{"OBJECT_NAME":"STARLINK-32457","OBJECT_ID":"2024-196L","EPOCH":"2026-02-16T16:35:03.770304","MEAN_MOTION":15.30188412,"ECCENTRICITY":0.0001346,"INCLINATION":53.1614,"RA_OF_ASC_NODE":198.7291,"ARG_OF_PERICENTER":85.6969,"MEAN_ANOMALY":274.4186,"EPHEMERIS_TYPE":0,"CLASSIFICATION_TYPE":"U","NORAD_CAT_ID":61717,"ELEMENT_SET_NO":999,"REV_AT_EPOCH":7394,"BSTAR":3.4907e-5,"MEAN_MOTION_DOT":6.74e-6,"MEAN_MOTION_DDOT":0},{"OBJECT_NAME":"STARLINK-32591","OBJECT_ID":"2024-196M","EPOCH":"2026-02-16T15:39:44.225280","MEAN_MOTION":15.30179987,"ECCENTRICITY":0.0001307,"INCLINATION":53.1608,"RA_OF_ASC_NODE":186.3771,"ARG_OF_PERICENTER":94.8567,"MEAN_ANOMALY":265.2583,"EPHEMERIS_TYPE":0,"CLASSIFICATION_TYPE":"U","NORAD_CAT_ID":61718,"ELEMENT_SET_NO":999,"REV_AT_EPOCH":7411,"BSTAR":1.1948e-5,"MEAN_MOTION_DOT":-5.0e-8,"MEAN_MOTION_DDOT":0},{"OBJECT_NAME":"STARLINK-32344","OBJECT_ID":"2024-196N","EPOCH":"2026-02-16T18:51:39.827232","MEAN_MOTION":15.30193634,"ECCENTRICITY":0.0001094,"INCLINATION":53.1581,"RA_OF_ASC_NODE":198.6098,"ARG_OF_PERICENTER":103.9114,"MEAN_ANOMALY":256.2009,"EPHEMERIS_TYPE":0,"CLASSIFICATION_TYPE":"U","NORAD_CAT_ID":61719,"ELEMENT_SET_NO":999,"REV_AT_EPOCH":7395,"BSTAR":-9.2654e-6,"MEAN_MOTION_DOT":-6.33e-6,"MEAN_MOTION_DDOT":0},{"OBJECT_NAME":"STARLINK-32322","OBJECT_ID":"2024-196P","EPOCH":"2026-02-16T17:35:51.228384","MEAN_MOTION":15.30184859,"ECCENTRICITY":0.0001356,"INCLINATION":53.1603,"RA_OF_ASC_NODE":198.996,"ARG_OF_PERICENTER":78.7179,"MEAN_ANOMALY":281.3974,"EPHEMERIS_TYPE":0,"CLASSIFICATION_TYPE":"U","NORAD_CAT_ID":61720,"ELEMENT_SET_NO":999,"REV_AT_EPOCH":7394,"BSTAR":6.6178e-6,"MEAN_MOTION_DOT":-1.63e-6,"MEAN_MOTION_DDOT":0},{"OBJECT_NAME":"STARLINK-32469","OBJECT_ID":"2024-196Q","EPOCH":"2026-02-16T16:25:56.579232","MEAN_MOTION":15.30189207,"ECCENTRICITY":0.0001184,"INCLINATION":53.1612,"RA_OF_ASC_NODE":198.6866,"ARG_OF_PERICENTER":99.8644,"MEAN_ANOMALY":260.2491,"EPHEMERIS_TYPE":0,"CLASSIFICATION_TYPE":"U","NORAD_CAT_ID":61721,"ELEMENT_SET_NO":999,"REV_AT_EPOCH":7394,"BSTAR":2.5405e-5,"MEAN_MOTION_DOT":3.93e-6,"MEAN_MOTION_DDOT":0},{"OBJECT_NAME":"STARLINK-32438","OBJECT_ID":"2024-196R","EPOCH":"2026-02-16T19:00:47.142720","MEAN_MOTION":15.30180734,"ECCENTRICITY":0.0001076,"INCLINATION":53.1595,"RA_OF_ASC_NODE":198.649,"ARG_OF_PERICENTER":96.1093,"MEAN_ANOMALY":264.003,"EPHEMERIS_TYPE":0,"CLASSIFICATION_TYPE":"U","NORAD_CAT_ID":61722,"ELEMENT_SET_NO":999,"REV_AT_EPOCH":7395,"BSTAR":-5.5162e-5,"MEAN_MOTION_DOT":-1.991e-5,"MEAN_MOTION_DDOT":0},{"OBJECT_NAME":"STARLINK-32540","OBJECT_ID":"2024-196S","EPOCH":"2026-02-16T15:52:35.930208","MEAN_MOTION":15.30193858,"ECCENTRICITY":0.0001161,"INCLINATION":53.1594,"RA_OF_ASC_NODE":163.1991,"ARG_OF_PERICENTER":77.675,"MEAN_ANOMALY":282.4381,"EPHEMERIS_TYPE":0,"CLASSIFICATION_TYPE":"U","NORAD_CAT_ID":61723,"ELEMENT_SET_NO":999,"REV_AT_EPOCH":7443,"BSTAR":6.6562e-5,"MEAN_MOTION_DOT":1.612e-5,"MEAN_MOTION_DDOT":0},{"OBJECT_NAME":"STARLINK-32528","OBJECT_ID":"2024-196T","EPOCH":"2026-02-16T17:40:24.764736","MEAN_MOTION":15.30181118,"ECCENTRICITY":0.0001035,"INCLINATION":53.1593,"RA_OF_ASC_NODE":199.0124,"ARG_OF_PERICENTER":99.188,"MEAN_ANOMALY":260.9238,"EPHEMERIS_TYPE":0,"CLASSIFICATION_TYPE":"U","NORAD_CAT_ID":61724,"ELEMENT_SET_NO":999,"REV_AT_EPOCH":7274,"BSTAR":-1.6295e-6,"MEAN_MOTION_DOT":-4.07e-6,"MEAN_MOTION_DDOT":0},{"OBJECT_NAME":"STARLINK-32573","OBJECT_ID":"2024-196U","EPOCH":"2026-02-16T15:39:01.605888","MEAN_MOTION":15.30175009,"ECCENTRICITY":0.0001216,"INCLINATION":53.1614,"RA_OF_ASC_NODE":199.1995,"ARG_OF_PERICENTER":103.1043,"MEAN_ANOMALY":257.0093,"EPHEMERIS_TYPE":0,"CLASSIFICATION_TYPE":"U","NORAD_CAT_ID":61725,"ELEMENT_SET_NO":999,"REV_AT_EPOCH":7393,"BSTAR":-3.9385e-5,"MEAN_MOTION_DOT":-1.524e-5,"MEAN_MOTION_DDOT":0},{"OBJECT_NAME":"STARLINK-32478","OBJECT_ID":"2024-196V","EPOCH":"2026-02-16T17:02:24.947808","MEAN_MOTION":15.30191299,"ECCENTRICITY":0.0001231,"INCLINATION":53.1603,"RA_OF_ASC_NODE":198.8485,"ARG_OF_PERICENTER":94.9635,"MEAN_ANOMALY":265.1506,"EPHEMERIS_TYPE":0,"CLASSIFICATION_TYPE":"U","NORAD_CAT_ID":61726,"ELEMENT_SET_NO":999,"REV_AT_EPOCH":7394,"BSTAR":3.2932e-5,"MEAN_MOTION_DOT":6.16e-6,"MEAN_MOTION_DDOT":0},{"OBJECT_NAME":"STARLINK-32511","OBJECT_ID":"2024-196W","EPOCH":"2026-02-16T16:53:17.883744","MEAN_MOTION":15.30192497,"ECCENTRICITY":0.0001012,"INCLINATION":53.1591,"RA_OF_ASC_NODE":198.8078,"ARG_OF_PERICENTER":96.8287,"MEAN_ANOMALY":263.2829,"EPHEMERIS_TYPE":0,"CLASSIFICATION_TYPE":"U","NORAD_CAT_ID":61727,"ELEMENT_SET_NO":999,"REV_AT_EPOCH":7394,"BSTAR":0.00015892,"MEAN_MOTION_DOT":4.349e-5,"MEAN_MOTION_DDOT":0},{"OBJECT_NAME":"STARLINK-32475","OBJECT_ID":"2024-196X","EPOCH":"2026-02-16T19:52:17.126400","MEAN_MOTION":15.30194587,"ECCENTRICITY":0.000127,"INCLINATION":53.1604,"RA_OF_ASC_NODE":198.1577,"ARG_OF_PERICENTER":91.8038,"MEAN_ANOMALY":268.3108,"EPHEMERIS_TYPE":0,"CLASSIFICATION_TYPE":"U","NORAD_CAT_ID":61728,"ELEMENT_SET_NO":999,"REV_AT_EPOCH":7396,"BSTAR":9.1812e-6,"MEAN_MOTION_DOT":-8.7e-7,"MEAN_MOTION_DDOT":0},{"OBJECT_NAME":"STARLINK-32442","OBJECT_ID":"2024-196Y","EPOCH":"2026-02-16T16:48:43.752960","MEAN_MOTION":15.30208789,"ECCENTRICITY":0.0001167,"INCLINATION":53.1604,"RA_OF_ASC_NODE":198.7833,"ARG_OF_PERICENTER":84.221,"MEAN_ANOMALY":275.8924,"EPHEMERIS_TYPE":0,"CLASSIFICATION_TYPE":"U","NORAD_CAT_ID":61729,"ELEMENT_SET_NO":999,"REV_AT_EPOCH":7394,"BSTAR":-4.5517e-5,"MEAN_MOTION_DOT":-1.707e-5,"MEAN_MOTION_DDOT":0},{"OBJECT_NAME":"STARLINK-32362","OBJECT_ID":"2024-202A","EPOCH":"2026-02-16T05:13:38.598240","MEAN_MOTION":15.27600081,"ECCENTRICITY":0.000143,"INCLINATION":43.0046,"RA_OF_ASC_NODE":348.0206,"ARG_OF_PERICENTER":258.0672,"MEAN_ANOMALY":102.0019,"EPHEMERIS_TYPE":0,"CLASSIFICATION_TYPE":"U","NORAD_CAT_ID":61845,"ELEMENT_SET_NO":999,"REV_AT_EPOCH":7276,"BSTAR":-0.00015644,"MEAN_MOTION_DOT":-4.567e-5,"MEAN_MOTION_DDOT":0},{"OBJECT_NAME":"STARLINK-32472","OBJECT_ID":"2024-202B","EPOCH":"2026-02-16T06:11:00.665376","MEAN_MOTION":15.27581457,"ECCENTRICITY":0.0001798,"INCLINATION":43.0031,"RA_OF_ASC_NODE":348.3217,"ARG_OF_PERICENTER":258.5565,"MEAN_ANOMALY":101.5085,"EPHEMERIS_TYPE":0,"CLASSIFICATION_TYPE":"U","NORAD_CAT_ID":61846,"ELEMENT_SET_NO":999,"REV_AT_EPOCH":7217,"BSTAR":-9.5655e-5,"MEAN_MOTION_DOT":-2.894e-5,"MEAN_MOTION_DDOT":0},{"OBJECT_NAME":"STARLINK-32352","OBJECT_ID":"2024-202C","EPOCH":"2026-02-16T05:06:15.858720","MEAN_MOTION":15.27560484,"ECCENTRICITY":0.0002631,"INCLINATION":43.0089,"RA_OF_ASC_NODE":347.9808,"ARG_OF_PERICENTER":270.9461,"MEAN_ANOMALY":89.109,"EPHEMERIS_TYPE":0,"CLASSIFICATION_TYPE":"U","NORAD_CAT_ID":61847,"ELEMENT_SET_NO":999,"REV_AT_EPOCH":7218,"BSTAR":-0.00017139,"MEAN_MOTION_DOT":-4.973e-5,"MEAN_MOTION_DDOT":0}]
