STARLINK-32465          
1 61716U 24196K   26047.79538201  .00000205  00000+0  19043-4 0  9994
2 61716  53.1598 198.6693 0001146 100.9038 259.2092 15.30182790 73958
STARLINK-32457          
1 61717U 24196L   26047.69101586  .00000674  00000+0  34907-4 0  9992
2 61717  53.1614 198.7291 0001346  85.6969 274.4186 15.30188412 73946
STARLINK-32591          
1 61718U 24196M   26047.65259520 -.00000005  00000+0  11948-4 0  9990
2 61718  53.1608 186.3771 0001307  94.8567 265.2583 15.30179987 74115
STARLINK-32344          
1 61719U 24196N   26047.78587763 -.00000633  00000+0 -92654-5 0  9990
2 61719  53.1581 198.6098 0001094 103.9114 256.2009 15.30193634 73956
STARLINK-32322          
1 61720U 24196P   26047.73323181 -.00000163  00000+0  66178-5 0  9998
2 61720  53.1603 198.9960 0001356  78.7179 281.3974 15.30184859 73943
STARLINK-32469          
1 61721U 24196Q   26047.68468263  .00000393  00000+0  25405-4 0  9995
2 61721  53.1612 198.6866 0001184  99.8644 260.2491 15.30189207 73948
STARLINK-32438          
1 61722U 24196R   26047.79221230 -.00001991  00000+0 -55162-4 0  9999
2 61722  53.1595 198.6490 0001076  96.1093 264.0030 15.30180734 73958
STARLINK-32540          
1 61723U 24196S   26047.66152697  .00001612  00000+0  66562-4 0  9990
2 61723  53.1594 163.1991 0001161  77.6750 282.4381 15.30193858 74438
STARLINK-32528          
1 61724U 24196T   26047.73639774 -.00000407  00000+0 -16295-5 0  9997
2 61724  53.1593 199.0124 0001035  99.1880 260.9238 15.30181118 72747
STARLINK-32573          
1 61725U 24196U   26047.65210192 -.00001524  00000+0 -39385-4 0  9993
2 61725  53.1614 199.1995 0001216 103.1043 257.0093 15.30175009 73937
STARLINK-32478          
1 61726U 24196V   26047.71001097  .00000616  00000+0  32932-4 0  9993
2 61726  53.1603 198.8485 0001231  94.9635 265.1506 15.30191299 73946
STARLINK-32511          
1 61727U 24196W   26047.70367921  .00004349  00000+0  15892-3 0  9996
2 61727  53.1591 198.8078 0001012  96.8287 263.2829 15.30192497 73940
STARLINK-32475          
1 61728U 24196X   26047.82797600 -.00000087  00000+0  91812-5 0  9995
2 61728  53.1604 198.1577 0001270  91.8038 268.3108 15.30194587 73968
STARLINK-32442          
1 61729U 24196Y   26047.70050640 -.00001707  00000+0 -45517-4 0  9990
2 61729  53.1604 198.7833 0001167  84.2210 275.8924 15.30208789 73940
STARLINK-32362          
1 61845U 24202A   26047.21780785 -.00004567  00000+0 -15644-3 0  9997
2 61845  43.0046 348.0206 0001430 258.0672 102.0019 15.27600081 72769
STARLINK-32472          
1 61846U 24202B   26047.25764659 -.00002894  00000+0 -95655-4 0  9996
2 61846  43.0031 348.3217 0001798 258.5565 101.5085 15.27581457 72179
STARLINK-32352          
1 61847U 24202C   26047.21268355 -.00004973  00000+0 -17139-3 0  9995
2 61847  43.0089 347.9808 0002631 270.9461  89.1090 15.27560484 72189
